METEOSAT-12 (MTG-I1)
1 54743U 22170C   26185.36472414  .00000006  00000+0  00000+0 0  9992
2 54743   0.7569  25.5656 0003538  75.5013 312.3958  1.00276407 13159
